CCSDS_OMM_VERS = 2.0
CREATION_DATE  = 
ORIGINATOR     = 

OBJECT_NAME    = SHENZHOU-22
OBJECT_ID      = 2025-272A
CENTER_NAME    = EARTH
REF_FRAME      = TEME
TIME_SYSTEM    = UTC
MEAN_ELEMENT_THEORY = SGP/SGP4

EPOCH          = 2025-11-24T13:57:13.070592
MEAN_MOTION    = 15.58193834
ECCENTRICITY   = .0010743
INCLINATION    = 41.4653
RA_OF_ASC_NODE = 126.8581
ARG_OF_PERICENTER = 261.2431
MEAN_ANOMALY   = 98.7190

EPHEMERIS_TYPE = 0
CLASSIFICATION_TYPE = U
NORAD_CAT_ID   = 66645
ELEMENT_SET_NO = 999
REV_AT_EPOCH   = 26119
BSTAR          = .27858E-3
MEAN_MOTION_DOT = .21413E-3
MEAN_MOTION_DDOT = 0

CCSDS_OMM_VERS = 2.0
CREATION_DATE  = 
ORIGINATOR     = 

OBJECT_NAME    = CZ-2F R/B
OBJECT_ID      = 2025-272B
CENTER_NAME    = EARTH
REF_FRAME      = TEME
TIME_SYSTEM    = UTC
MEAN_ELEMENT_THEORY = SGP/SGP4

EPOCH          = 2025-11-25T20:19:51.942144
MEAN_MOTION    = 16.00754081
ECCENTRICITY   = .0113196
INCLINATION    = 41.4660
RA_OF_ASC_NODE = 118.9667
ARG_OF_PERICENTER = 129.6659
MEAN_ANOMALY   = 231.4244

EPHEMERIS_TYPE = 0
CLASSIFICATION_TYPE = U
NORAD_CAT_ID   = 66646
ELEMENT_SET_NO = 999
REV_AT_EPOCH   = 11
BSTAR          = .31875E-3
MEAN_MOTION_DOT = .391175E-2
MEAN_MOTION_DDOT = .75674E-5

CCSDS_OMM_VERS = 2.0
CREATION_DATE  = 
ORIGINATOR     = 

OBJECT_NAME    = 2025-273A
OBJECT_ID      = 2025-273A
CENTER_NAME    = EARTH
REF_FRAME      = TEME
TIME_SYSTEM    = UTC
MEAN_ELEMENT_THEORY = SGP/SGP4

EPOCH          = 2025-11-25T21:05:30.040224
MEAN_MOTION    = 12.41951199
ECCENTRICITY   = .0008368
INCLINATION    = 82.4972
RA_OF_ASC_NODE = 296.9209
ARG_OF_PERICENTER = 328.2375
MEAN_ANOMALY   = 31.8198

EPHEMERIS_TYPE = 0
CLASSIFICATION_TYPE = U
NORAD_CAT_ID   = 66647
ELEMENT_SET_NO = 999
REV_AT_EPOCH   = 4
BSTAR          = .7044E-4
MEAN_MOTION_DOT = .19E-6
MEAN_MOTION_DDOT = 0

CCSDS_OMM_VERS = 2.0
CREATION_DATE  = 
ORIGINATOR     = 

OBJECT_NAME    = 2025-273B
OBJECT_ID      = 2025-273B
CENTER_NAME    = EARTH
REF_FRAME      = TEME
TIME_SYSTEM    = UTC
MEAN_ELEMENT_THEORY = SGP/SGP4

EPOCH          = 2025-11-25T21:05:24.941760
MEAN_MOTION    = 12.42253604
ECCENTRICITY   = .0008446
INCLINATION    = 82.5014
RA_OF_ASC_NODE = 296.9270
ARG_OF_PERICENTER = 317.1755
MEAN_ANOMALY   = 42.8666

EPHEMERIS_TYPE = 0
CLASSIFICATION_TYPE = U
NORAD_CAT_ID   = 66648
ELEMENT_SET_NO = 999
REV_AT_EPOCH   = 4
BSTAR          = .7051E-4
MEAN_MOTION_DOT = .19E-6
MEAN_MOTION_DDOT = 0

CCSDS_OMM_VERS = 2.0
CREATION_DATE  = 
ORIGINATOR     = 

OBJECT_NAME    = 2025-273C
OBJECT_ID      = 2025-273C
CENTER_NAME    = EARTH
REF_FRAME      = TEME
TIME_SYSTEM    = UTC
MEAN_ELEMENT_THEORY = SGP/SGP4

EPOCH          = 2025-11-25T21:05:34.774080
MEAN_MOTION    = 12.41672443
ECCENTRICITY   = .0008604
INCLINATION    = 82.5011
RA_OF_ASC_NODE = 296.9269
ARG_OF_PERICENTER = 338.1950
MEAN_ANOMALY   = 21.8761

EPHEMERIS_TYPE = 0
CLASSIFICATION_TYPE = U
NORAD_CAT_ID   = 66649
ELEMENT_SET_NO = 999
REV_AT_EPOCH   = 4
BSTAR          = .91003E-4
MEAN_MOTION_DOT = .22E-6
MEAN_MOTION_DDOT = 0

