SHENZHOU-22             
1 66645U 25272A   25328.58140128  .00021413  00000+0  27858-3 0  9997
2 66645  41.4653 126.8581 0010743 261.2431  98.7190 15.58193834261197
CZ-2F R/B               
1 66646U 25272B   25329.84712896  .00391175  75674-5  31875-3 0  9999
2 66646  41.4660 118.9667 0113196 129.6659 231.4244 16.00754081   112
2025-273A               
1 66647U 25273A   25329.87881991  .00000019  00000+0  70440-4 0  9998
2 66647  82.4972 296.9209 0008368 328.2375  31.8198 12.41951199    41
2025-273B               
1 66648U 25273B   25329.87876090  .00000019  00000+0  70510-4 0  9991
2 66648  82.5014 296.9270 0008446 317.1755  42.8666 12.42253604    43
2025-273C               
1 66649U 25273C   25329.87887470  .00000022  00000+0  91003-4 0  9990
2 66649  82.5011 296.9269 0008604 338.1950  21.8761 12.41672443    43
